QIANFAN-41              
1 62242U 24232F   25277.80801515  .00000163  00000+0  23431-3 0  9995
2 62242  89.0005  48.1395 0014694  37.3272 322.8897 13.50974799 89941
QIANFAN-42              
1 62243U 24232G   25277.85926211  .00000879  00000+0  37404-3 0  9991
2 62243  89.0004  45.2097 0013243 315.0497  44.9622 14.24377187 91561
QIANFAN-43              
1 62244U 24232H   25277.80394231  .00000159  00000+0  22765-3 0  9993
2 62244  89.0009  48.2021 0016352  41.7271 318.5124 13.50975887 58552
QIANFAN-44              
1 62245U 24232J   25277.79154131  .00000145  00000+0  20574-3 0  9996
2 62245  89.0008  48.0152 0014500  39.6761 320.5448 13.50977173 90028
QIANFAN-45              
1 62246U 24232K   25277.83272690  .00000146  00000+0  20680-3 0  9992
2 62246  89.0011  48.1552 0015127  38.9573 321.2665 13.50973836 89958
QIANFAN-46              
1 62247U 24232L   25277.85739220  .00000129  00000+0  18176-3 0  9990
2 62247  89.0007  48.2244 0015363  44.0253 316.2119 13.50974459 89914
QIANFAN-47              
1 62248U 24232M   25277.78747248  .00000140  00000+0  19875-3 0  9992
2 62248  89.0003  48.1673 0015767  43.2649 316.9738 13.50976181 89934
QIANFAN-48              
1 62249U 24232N   25277.82453844  .00000134  00000+0  18922-3 0  9999
2 62249  89.0007  48.1626 0018064  44.8884 315.3724 13.50971954 89940
